LILACSAT-2
1 40908U 15049K   17146.59634565  .00000442  00000-0  28579-4 0  9997
2 40908 097.4620 152.0836 0014596 287.6342 072.3295 15.13092020092904
XW-2F
1 40910U 15049M   17146.56943339  .00001325  00000-0  73442-4 0  9999
2 40910 097.4539 152.9098 0013782 287.8253 072.1475 15.15452630093003
XW-2B
1 40911U 15049N   17146.56033580  .00000887  00000-0  51568-4 0  9995
2 40911 097.4561 152.6168 0012908 290.8458 069.1392 15.14556046092866
DCBB
1 40912U 15049P   17146.59701219  .00001806  00000-0  93156-4 0  9991
2 40912 097.4506 154.7137 0014053 279.8729 198.7857 15.17545932093014
TW-1C
1 40926U 15051B   17146.54014837  .00007876  00000-0  18411-3 0  9990
2 40926 097.2311 186.2698 0010096 245.9515 254.0734 15.42381734093581
TW-1A
1 40928U 15051D   17146.39886681  .00004053  00000-0  11789-3 0  9994
2 40928 097.2285 182.6051 0011039 278.8644 196.1589 15.35949586093358
IO-86
1 40931U 15052B   17146.35933591  .00000649  00000-0  13836-5 0  9992
2 40931 005.9994 028.3630 0013568 297.1544 062.7148 14.76527726089734
GomX-3
1 40949U 98067HA  16292.18357804  .08527750  12374-4  77882-3 0  9992
2 40949  51.6055 106.7696 0006699 286.1344  73.8944 16.38002265 59645
LQSat
1 40958U 15057A   17146.51004396  .00000056  00000-0  16475-4 0  9999
2 40958 097.9778 222.2065 0019056 132.4760 227.8067 14.72964428087923
AO-85
1 40967U 15058D   17146.34372936  .00000370  00000-0  62044-4 0 04963
2 40967 064.7776 285.1351 0172047 086.0909 275.9845 14.75415621073896
ATHENOXAT-1
1 41168U 15077C   17145.25028286  .00002717  00000-0  11695-3 0  9993
2 41168 014.9878 336.9996 0011831 057.0438 094.3461 15.11509047079562
ChubuSat-2
1 41338U 16012B   17146.52178481  .00000429  00000-0  26982-4 0  9990
2 41338 031.0031 249.8581 0013931 205.6069 154.3877 14.99729803069733
ChubuSat-3
1 41339U 16012C   17146.45296568  .00000462  00000-0  29450-4 0  9990
2 41339 031.0114 249.4792 0014009 212.8501 147.1258 14.99936468069701
Horyu-4
1 41340U 16012D   17146.56903235  .00000634  00000-0  42220-4 0  9991
2 41340 031.0049 246.3731 0014245 220.6476 139.3097 15.00575902069764
OUFTI-1
1 41458U 16025C   17146.60996529  .00002784  00000-0  15216-3 0  9990
2 41458 098.1884 182.9507 0174903 002.4324 357.7709 15.03104227059347
e-st at r-II
1 41459U 16025D   17146.62872410  .00002840  00000-0  15564-3 0  9994
2 41459 098.1878 182.9246 0175179 002.5659 357.6421 15.02948751059335
AAUSAT4
1 41460U 16025E   17146.50558085  .00003950  00000-0  21475-3 0  9993
2 41460 098.1811 182.8842 0168092 001.2201 358.9372 15.03804864059336
MinXSS
1 41474U 98067HU  17125.52237589  .05724416  12300-4  86147-3 0  9995
2 41474 051.6449 208.6967 0008167 329.0747 030.9230 16.33400422055623
CADRE
1 41475U 98067HV  17003.74787607  .12518598  12537-4  55989-3 0  9998
2 41475  51.6110 110.0165 0004040 312.3134  47.7551 16.43344525 36494
NODES 1
1 41477U 98067HX  17146.52277892  .00046396  00000-0  24975-3 0  9992
2 41477 051.6284 115.6782 0004713 044.6723 315.4658 15.79704811058640
NODES 2
1 41478U 98067HY  17146.36789435  .00043750  00000-0  24082-3 0  9996
2 41478 051.6314 116.9107 0004422 044.4185 315.7171 15.79240193058615
LO-87
1 41557U 16033B   17146.58566982  .00001811  00000-0  71033-4 0  9992
2 41557 097.4637 226.1028 0016056 085.0379 275.2693 15.26968032055131
NuSat2
1 41558U 16033C   17146.42023957  .00001736  00000-0  68462-4 0  9994
2 41558 097.4664 225.9873 0015536 084.4642 275.8368 15.26841666055100
Lapan A3
1 41603U 16040E   17146.58057039  .00000324  00000-0  18572-4 0  9997
2 41603 097.4628 208.8195 0014305 143.8743 344.8127 15.19337177051377
Swayam
1 41607U 16040J   17146.41621159  .00001942  00000-0  91312-4 0  9993
2 41607 097.4619 208.9084 0015466 147.3150 212.9046 15.20688174051293
Pratham
1 41783U 16059A   17146.47769762  .00000072  00000-0  23471-4 0  9991
2 41783 098.1686 208.0740 0032675 227.2849 132.5601 14.62833622035420
AlSat 1N
1 41789U 16059G   17146.55253511  .00000124  00000-0  32784-4 0  9991
2 41789 098.1678 208.6049 0027376 221.1129 138.8016 14.64042993035447
ScatSat
1 41790U 16059H   17146.59714858  .00000038  00000-0  20483-4 0  9990
2 41790 098.0668 197.5571 0010700 207.0967 152.9671 14.50107420035131
TY-1
1 41844U 16066D   17146.52954834  .00001464  00000-0  67076-4 0  9994
2 41844 097.4044 154.0115 0015157 320.1082 197.2225 15.21988846030040
CAS-2T
1 41845U 16066E   17146.47361370  .00000174  00000-0  37959-4 0  9990
2 41845 098.7767 161.5830 0365858 312.8377 044.2601 14.37749931028373
Pegasus-1
1 41846U 16066F   17146.58609656  .00000538  00000-0  93569-4 0  9998
2 41846 098.7814 161.5036 0368892 313.7359 043.3819 14.37001885028376
STARS-C
1 41895U 98067KR  17146.57482034  .00017731  00000-0  21649-3 0  9993
2 41895 051.6372 142.5119 0002787 244.1091 115.9615 15.60529068024614
Tancredo 1
1 41931U 98067KT  17146.41106408  .00037878  00000-0  37450-3 0  9996
2 41931 051.6356 141.4032 0003420 169.2304 190.8765 15.65482258020188
ITF-2
1 41932U 98067KU  17146.34839815  .00010693  00000-0  14282-3 0  9998
2 41932 051.6393 144.7581 0004735 178.0830 182.0181 15.58650524020132
AOBA-V3LOX3
1 41935U 98067KX  17146.59910344  .00010677  00000-0  14129-3 0  9997
2 41935 051.6389 143.4302 0004028 182.1401 177.9575 15.58904389020278
OSNSAT
1 41939U 98067KZ  17146.39388079  .00024488  00000-0  27671-3 0  9994
2 41939 051.6371 142.7983 0004674 179.2030 180.8972 15.62312238019523
EO-88
1 42017U 17008BX  17146.55478756  .00001912  00000-0  84640-4 0  9995
2 42017 097.4969 208.0519 0005102 305.4391 054.6368 15.22884663015191
SOMP2
1 42700U 98067LH  17146.24099712  .00009256  00000-0  14175-3 0  9999
2 42700 051.6394 147.6262 0005235 254.8246 174.5572 15.55111160001533
HAVELSAT
1 42701U 98067LJ  17146.31642381  .00009020  00000-0  13835-3 0  9995
2 42701 051.6401 147.2493 0005571 239.9072 251.8913 15.55105705001524
Columbia
1 42702U 98067LK  17146.31563003  .00016324  00000-0  24342-3 0  9999
2 42702 051.6411 147.2500 0005131 240.7681 247.5549 15.55218209001456
PHOENIX
1 42706U 98067LP  17146.30862670  .00009420  00000-0  14424-3 0  9993
2 42706 051.6413 147.2969 0001591 208.7387 236.7375 15.55095288001440
X-CubeSat
1 42707U 98067LQ  17146.31691506  .00009066  00000-0  13920-3 0  9999
2 42707 051.6390 147.2573 0001089 164.9070 326.2930 15.55073688001431
qbee
1 42708U 98067LR  17146.30898514  .00009426  00000-0  14453-3 0  9999
2 42708 051.6402 147.2976 0000831 204.2355 241.8411 15.55055890001397
ZA-AeroSat
1 42713U 98067LU  17146.31006494  .00008579  00000-0  13260-3 0  9997
2 42713 051.6397 147.3145 0004307 234.4992 210.7788 15.54970279001106
LINK
1 42714U 98067LV  17146.31040925  .00009925  00000-0  15285-3 0  9990
2 42714 051.6383 147.3129 0002259 162.7260 282.6338 15.54867338001211
UPSat
1 42716U 98067LX  17146.31796131  .00010815  00000-0  16507-3 0  9997
2 42716 051.6405 147.2701 0003436 245.0525 245.4715 15.55003598001239
SpaceCube
1 42717U 98067LY  17146.31848382  .00008939  00000-0  13805-3 0  9996
2 42717 051.6359 147.2556 0000740 028.2884 103.8507 15.54930526000470
Hoopoe
1 42718U 98067LZ  17146.30953725  .00010024  00000-0  15368-3 0  9998
2 42718 051.6386 147.3131 0003987 247.9870 194.4663 15.54975590000471
UNSW-EC0
1 42721U 98067MA  17145.48097229 -.00036282  00000-0 -53230-3 0  9994
2 42721 051.6379 151.4984 0007691 206.9345 250.6078 15.54646874000045
NJUST-1
1 42722U 98067MB  17145.60917919 -.00052252  00000-0 -77228-3 0  9994
2 42722 051.6516 150.8315 0007059 213.3724 242.1736 15.54620085000066
Challenger
1 42723U 98067MC  17146.18459052  .00005483  00000-0  88247-4 0  9994
2 42723 051.6351 147.9707 0007494 221.2958 216.8812 15.54676027000134
DUTHsat
1 42724U 98067MD  17146.51785720 -.00104458  00000-0 -15699-2 0  9999
2 42724 051.6401 146.3227 0006014 226.3323 277.4960 15.54478796000118
LilacSat-1
1 42725U 98067ME  17146.45007944  .00009561  00000-0  14864-3 0  9999
2 42725 051.6378 146.6650 0001131 262.8784 221.3485 15.54656197000108
nSIGHT1
1 42726U 98067MF  17146.44397074 -.00070558  00000-0 -10488-2 0  9998
2 42726 051.6365 146.7018 0004925 272.9823 176.9782 15.54609789000104
